#aV2020  9  6  0  0  0.00000000     288 DD+AD WGS84 FIT  NGA
## 2122      0.00000000   300.00000000 59098 0.0000000000000
+   31     1  2  3  4  5  6  7  8  9 10 11 12 13 15 16 17 18
+         19 20 21 22 23 24 25 26 27 28 29 30 31 32  0  0  0
+          0  0  0  0  0  0  0  0  0  0  0  0  0  0  0  0  0
+          0  0  0  0  0  0  0  0  0  0  0  0  0  0  0  0  0
+          0  0  0  0  0  0  0  0  0  0  0  0  0  0  0  0  0
++         2  2  2  2  2  2  2  2  2  2  2  2  2  2  2  2  2
++         2  2  2  2  2  2  2  2  2  2  2  2  2  2  0  0  0
++         0  0  0  0  0  0  0  0  0  0  0  0  0  0  0  0  0
++         0  0  0  0  0  0  0  0  0  0  0  0  0  0  0  0  0
++         0  0  0  0  0  0  0  0  0  0  0  0  0  0  0  0  0
%c cc cc ccc ccc cccc cccc cccc cccc ccccc ccccc ccccc ccccc
%c cc cc ccc ccc cccc cccc cccc cccc ccccc ccccc ccccc ccccc
%f  0.0000000  0.000000000  0.00000000000  0.000000000000000
%f  0.0000000  0.000000000  0.00000000000  0.000000000000000
%i    0    0    0    0      0      0      0      0         0
%i    0    0    0    0      0      0      0      0         0
/*      NGA, ST. LOUIS,MO.                                  
/*   EPHEMERIS COMPUTED FROM 2 DAYS OF DATA                 
/*   EPOCHA v5 SMOOTHER                                     
/*   G1762 IERS2010 SATAF SATAPC                            
*  2020  9  6 16 20  0.00000000
P  1  12222.463865  13715.031552 -19540.920710     36.042260                    
V  1 -24149.341389   -424.994195 -15273.533624      0.002620                    
P  2  10934.495730 -14378.085522  20105.667626   -512.758773                    
V  2  24172.502304    404.041267 -13321.444603     -0.052795                    
P  3  12680.841815  23390.788644    663.350214   -291.563934                    
V  3  -1833.126430   2005.150630 -31799.988546     -0.107541                    
P  4   5540.094421  16624.159233  19956.484614   -132.978857                    
V  4 -15243.770493  20268.387242 -12693.343968     -0.042213                    
P  5   1979.973469 -20455.495024  16569.355028    -20.494451                    
V  5  12353.263974  17628.517887  20291.503207     -0.008656                    
P  6  23268.631711  -6473.976655  11142.652526   -323.212998                    
V  6  13937.925846   2446.231892 -27773.098050     -0.035764                    
P  7  25097.149464   6475.433065   7201.456273   -366.718383                    
V  7  -8727.012848   1989.462548  29499.275853     -0.082596                    
P  8  -3206.816384  22632.633485 -13288.578641    -47.036891                    
V  8 -10769.041123  13309.017381  25498.996745     -0.013528                    
P  9  14680.301909   5212.839596  21457.775219   -282.012375                    
V  9 -14028.022846  23542.283844   3852.316027     -0.057601                    
P 10 -16421.011475   -343.685979 -20836.036339   -447.642395                    
V 10 -11734.139000 -23865.909738   9356.616952     -0.099948                    
P 11   1945.059426  16887.921900 -20936.556355   -171.779255                    
V 11 -23575.780284  10143.716702   5778.248311      0.105811                    
P 12 -10106.591890 -24644.170354   -790.318821     70.739987                    
V 12   2284.362482   -210.925499 -31987.697158     -0.050057                    
P 13  12120.246800 -22432.169876  -7363.332520     42.769690                    
V 13   7811.980710  -5467.824304  30127.949675      0.035261                    
P 15   -303.461799 -22699.801630 -13812.485916   -205.498615                    
V 15  10391.867359 -14076.392585  23850.491487      0.025815                    
P 16  -2150.242365  21424.500183  15023.959872   -205.566838                    
V 16  -9342.543202 -17367.281691  23530.776345     -0.050418                    
P 17  19416.858202 -11701.448606 -13377.951097    322.054012                    
V 17  -8878.239328  15391.832787 -25582.845974      0.054891                    
P 18 -25216.497070  -5866.749396   6021.069040    285.133170                    
V 18   7803.822661  -2042.933572  30579.730857      0.073163                    
P 19  19548.621248 -16298.961757  -7770.116791   -108.448159                    
V 19  -4315.756332   8655.085439 -30213.655153      0.050684                    
P 20 -20147.199395 -10883.646343 -13736.700906    526.820733                    
V 20  -7877.434552 -15603.515910  23809.640509     -0.001185                    
P 21 -14958.364222  12541.397319 -17142.853260     44.163286                    
V 21 -23407.536565  -1578.305786  18789.907736      0.042306                    
P 22   9183.351036  23953.194115  -6978.503109   -757.134174                    
V 22  -7819.920620  -5823.944881 -29288.652855      0.037739                    
P 23 -18499.864887 -10183.159699 -16146.431612     60.011953                    
V 23  -8249.039541 -18795.396026  21333.173461      0.092477                    
P 24  -9609.045562 -14705.394064 -20222.877634    -18.212846                    
V 24  25195.049597  -1528.891837 -10594.502838     -0.005043                    
P 25 -16807.252393 -18447.926482   9226.030748     45.381337                    
V 25  -3467.195197 -11685.248255 -28682.429692      0.052341                    
P 26 -11143.643772  11383.407907  21193.392020    274.276066                    
V 26 -13951.868229 -23213.888890   5354.158710      0.064728                    
P 27 -11955.034147  23265.092182  -3545.187332   -389.276371                    
V 27  -4459.916972   2327.088851  31931.560028     -0.090453                    
P 28  15282.882908   -346.338680 -21119.200100    681.645948                    
V 28  10042.527699  26334.873945   6801.453226     -0.041220                    
P 29 -11456.840560  -9144.216083  22107.959226   -189.024161                    
V 29  16762.834645 -22549.623436   -683.127775     -0.081426                    
P 30  26468.173106   -421.451142  -3264.681084   -296.709823                    
V 30   3936.266767   3627.275204  30732.768275     -0.072174                    
P 31 -22502.726832   7260.300848  12496.161431    -66.996064                    
V 31 -15598.006045  -3187.938792 -25683.015164     -0.024401                    
P 32 -18994.449644  12900.137469 -13133.890924    342.860763                    
V 32   6878.504749 -15613.772160 -25269.692848      0.049220                    
EOF
